NORAD_CAT_ID,OBJECT_NAME,OBJECT_TYPE,EPOCH,MEAN_MOTION,ECCENTRICITY,INCLINATION,RA_OF_ASC_NODE,ARG_OF_PERICENTER,MEAN_ANOMALY,BSTAR,MEAN_MOTION_DOT,MEAN_MOTION_DDOT,TLE_LINE0,TLE_LINE1,TLE_LINE2,SEMIMAJOR_AXIS,PERIOD,APOGEE,PERIGEE,DECAYED
56478.0,STARLINK-6041,PAYLOAD,2024-08-10 20:19:18,14.98327547,0.000273,70.0023,136.363,264.1436,95.9412,4.0729e-05,3.93e-06,0.0,0 STARLINK-6041,1 56478U 23064AG  24223.84674383  .00000393  00000-0  40729-4 0  9992,2 56478  70.0023 136.3630 0002730 264.1436  95.9412 14.98327547 69841,6950.2,96.107,573.963,570.168,0.0
56478.0,STARLINK-6041,PAYLOAD,2024-08-10 21:55:26,14.98320128,0.000277,70.001,136.1923,263.8842,96.2002,0.0002374,2.74e-05,0.0,0 STARLINK-6041,1 56478U 23064AG  24223.91350240  .00002740  00000-0  23740-3 0  9994,2 56478  70.0010 136.1923 0002770 263.8842  96.2002 14.98320128 69499,6950.223,96.108,574.014,570.163,0.0
56478.0,STARLINK-6041,PAYLOAD,2024-08-11 02:43:50,14.98339321,0.0002821,70.0007,135.688,268.5103,91.5733,0.00010887,1.207e-05,0.0,0 STARLINK-6041,1 56478U 23064AG  24224.11377465  .00001207  00000-0  10887-3 0  9990,2 56478  70.0007 135.6880 0002821 268.5103  91.5733 14.98339321 69887,6950.164,96.106,573.99,570.068,0.0
56478.0,STARLINK-6041,PAYLOAD,2024-08-11 17:09:03,14.98329919,0.0002464,70.0032,134.1766,266.9582,93.1296,6.394e-05,6.7e-06,0.0,0 STARLINK-6041,1 56478U 23064AG  24224.71462043  .00000670  00000-0  63940-4 0  9995,2 56478  70.0032 134.1766 0002464 266.9582  93.1296 14.98329919 69972,6950.193,96.107,573.771,570.346,0.0
56478.0,STARLINK-6041,PAYLOAD,2024-08-11 21:57:27,14.98327259,0.0002529,70.0027,133.671,266.9885,93.0984,1.973e-05,1.43e-06,0.0,0 STARLINK-6041,1 56478U 23064AG  24224.91490382  .00000143  00000-0  19730-4 0  9997,2 56478  70.0027 133.6710 0002529 266.9885  93.0984 14.98327259 69649,6950.201,96.107,573.824,570.309,0.0
56478.0,STARLINK-6041,PAYLOAD,2024-08-12 04:21:58,14.98338366,0.00026,70.0005,132.9915,260.0314,100.0552,0.00014289,1.613e-05,0.0,0 STARLINK-6041,1 56478U 23064AG  24225.18193139  .00001613  00000-0  14289-3 0  9993,2 56478  70.0005 132.9915 0002600 260.0314 100.0552 14.98338366 70043,6950.167,96.106,573.839,570.225,0.0
56478.0,STARLINK-6041,PAYLOAD,2024-08-12 10:46:31,14.98347108,0.0002555,70.0019,132.3177,290.2637,69.8248,3.5416e-05,3.3e-06,0.0,0 STARLINK-6041,1 56478U 23064AG  24225.44896998  .00000330  00000-0  35416-4 0  9996,2 56478  70.0019 132.3177 0002555 290.2637  69.8248 14.98347108 69725,6950.14,96.106,573.781,570.229,0.0
56478.0,STARLINK-6041,PAYLOAD,2024-08-12 21:59:27,14.98337755,0.000231,70.002,131.1408,283.5434,76.5467,0.00014242,1.607e-05,0.0,0 STARLINK-6041,1 56478U 23064AG  24225.91629004  .00001607  00000-0  14242-3 0  9991,2 56478  70.0020 131.1408 0002310 283.5434  76.5467 14.98337755 69792,6950.169,96.107,573.639,570.428,0.0
56478.0,STARLINK-6041,PAYLOAD,2024-08-13 10:48:33,14.98316484,0.0001851,70.0037,129.7979,286.9952,73.1004,-0.00015864,-1.984e-05,0.0,0 STARLINK-6041,1 56478U 23064AG  24226.45039032 -.00001984  00000-0 -15864-3 0  9998,2 56478  70.0037 129.7979 0001851 286.9952  73.1004 14.98316484 70234,6950.235,96.108,573.386,570.813,0.0
56478.0,STARLINK-6041,PAYLOAD,2024-08-13 17:13:06,14.98308082,9.34e-05,70.0031,129.1262,317.3724,42.7363,-0.00014286,-1.796e-05,0.0,0 STARLINK-6041,1 56478U 23064AG  24226.71744188 -.00001796  00000-0 -14286-3 0  9990,2 56478  70.0031 129.1262 0000934 317.3724  42.7363 14.98308082 70273,6950.261,96.108,572.775,571.477,0.0
56478.0,STARLINK-6041,PAYLOAD,2024-08-13 22:01:33,14.98278845,0.0002231,70.0011,128.6164,280.4221,79.6686,-0.00055175,-6.661e-05,0.0,0 STARLINK-6041,1 56478U 23064AG  24226.91775253 -.00006661  00000-0 -55175-3 0  9997,2 56478  70.0011 128.6164 0002231 280.4221  79.6686 14.98278845 69942,6950.351,96.11,573.767,570.665,0.0
56478.0,STARLINK-6041,PAYLOAD,2024-08-14 04:26:06,14.98279618,0.0002445,70.0006,127.9446,277.8124,82.2758,-0.00049185,-5.949e-05,0.0,0 STARLINK-6041,1 56478U 23064AG  24227.18479782 -.00005949  00000-0 -49185-3 0  9997,2 56478  70.0006 127.9446 0002445 277.8124  82.2758 14.98279618 70345,6950.349,96.11,573.913,570.514,0.0
56478.0,STARLINK-6041,PAYLOAD,2024-08-14 10:50:35,14.98330677,0.0002663,70.0032,127.269,282.1035,77.9825,-2.4879e-05,-3.9e-06,0.0,0 STARLINK-6041,1 56478U 23064AG  24227.45179694 -.00000390  00000-0 -24879-4 0  9995,2 56478  70.0032 127.2690 0002663 282.1035  77.9825 14.98330677 70383,6950.191,96.107,573.907,570.205,0.0
56478.0,STARLINK-6041,PAYLOAD,2024-08-14 22:03:31,14.98333699,0.0002885,69.9993,126.093,276.1776,83.9055,0.00010098,1.112e-05,0.0,0 STARLINK-6041,1 56478U 23064AG  24227.91911214  .00001112  00000-0  10098-3 0  9996,2 56478  69.9993 126.0930 0002885 276.1776  83.9055 14.98333699 70098,6950.181,96.107,574.052,570.041,0.0
56478.0,STARLINK-6041,PAYLOAD,2024-08-15 02:51:54,14.98349773,0.0002694,69.9997,125.5875,273.1446,86.9405,9.2946e-05,1.017e-05,0.0,0 STARLINK-6041,1 56478U 23064AG  24228.11938212  .00001017  00000-0  92946-4 0  9993,2 56478  69.9997 125.5875 0002694 273.1446  86.9405 14.98349773 70488,6950.132,96.106,573.869,570.124,0.0
56478.0,STARLINK-6041,PAYLOAD,2024-08-15 10:52:35,14.9834718,0.0002664,69.9998,124.747,281.6033,78.4827,4.1343e-05,4.01e-06,0.0,0 STARLINK-6041,1 56478U 23064AG  24228.45318378  .00000401  00000-0  41343-4 0  9996,2 56478  69.9998 124.7470 0002664 281.6033  78.4827 14.98347180 70174,6950.14,96.106,573.856,570.153,0.0
56478.0,STARLINK-6041,PAYLOAD,2024-08-15 22:05:32,14.98314328,0.0002695,69.9999,123.5684,281.508,78.5776,0.00066538,7.852e-05,0.0,0 STARLINK-6041,1 56478U 23064AG  24228.92051267  .00007852  00000-0  66538-3 0  9998,2 56478  69.9999 123.5684 0002695 281.5080  78.5776 14.98314328 70244,6950.241,96.108,573.979,570.233,0.0
56478.0,STARLINK-6041,PAYLOAD,2024-08-16 02:53:56,14.98323697,0.0002726,69.9998,123.0626,277.2937,82.7912,0.00067717,7.995e-05,0.0,0 STARLINK-6041,1 56478U 23064AG  24229.12078737  .00007995  00000-0  67717-3 0  9990,2 56478  69.9998 123.0626 0002726 277.2937  82.7912 14.98323697 70633,6950.212,96.107,573.972,570.183,0.0
56478.0,STARLINK-6041,PAYLOAD,2024-08-17 02:55:56,14.98349073,0.0003019,69.9993,120.5381,261.8259,98.2557,-4.3851e-05,-6.16e-06,0.0,0 STARLINK-6041,1 56478U 23064AG  24230.12218169 -.00000616  00000-0 -43851-4 0  9996,2 56478  69.9993 120.5381 0003019 261.8259  98.2557 14.98349073 70789,6950.134,96.106,574.097,569.901,0.0
56478.0,STARLINK-6041,PAYLOAD,2024-08-17 18:57:17,14.98337288,0.0002859,69.9999,118.8545,273.9652,86.1181,-0.00014638,-1.839e-05,0.0,0 STARLINK-6041,1 56478U 23064AG  24230.78978739 -.00001839  00000-0 -14638-3 0  9992,2 56478  69.9999 118.8545 0002859 273.9652  86.1181 14.98337288 70884,6950.17,96.107,574.022,570.048,0.0
56478.0,STARLINK-6041,PAYLOAD,2024-08-17 22:09:33,14.98335923,0.0003134,69.999,118.5173,272.5714,87.5087,-6.3346e-05,-8.49e-06,0.0,0 STARLINK-6041,1 56478U 23064AG  24230.92330562 -.00000849  00000-0 -63346-4 0  9995,2 56478  69.9990 118.5173 0003134 272.5714  87.5087 14.98335923 70547,6950.175,96.107,574.218,569.861,0.0
56478.0,STARLINK-6041,PAYLOAD,2024-08-18 02:57:57,14.98347479,0.0003021,69.9994,118.0131,276.2399,83.8415,-0.0001619,-2.025e-05,0.0,0 STARLINK-6041,1 56478U 23064AG  24231.12357965 -.00002025  00000-0 -16190-3 0  9996,2 56478  69.9994 118.0131 0003021 276.2399  83.8415 14.98347479 70931,6950.139,96.106,574.103,569.904,0.0
56478.0,STARLINK-6041,PAYLOAD,2024-08-18 20:35:25,14.98337432,0.0002929,69.9997,116.1611,262.4753,97.6073,-3.9064e-05,-5.59e-06,0.0,0 STARLINK-6041,1 56478U 23064AG  24231.85793960 -.00000559  00000-0 -39064-4 0  9991,2 56478  69.9997 116.1611 0002929 262.4753  97.6073 14.98337432 71047,6950.17,96.107,574.071,569.999,0.0
56478.0,STARLINK-6041,PAYLOAD,2024-08-18 22:11:33,14.98340868,0.0002979,69.9998,115.993,258.0759,102.0066,-7.9707e-05,-1.044e-05,0.0,0 STARLINK-6041,1 56478U 23064AG  24231.92469826 -.00001044  00000-0 -79707-4 0  9998,2 56478  69.9998 115.9930 0002979 258.0759 102.0066 14.98340868 70691,6950.159,96.106,574.095,569.954,0.0
56478.0,STARLINK-6041,PAYLOAD,2024-08-19 09:24:30,14.98326055,0.0002786,70.0,114.8147,269.8551,90.2289,0.00010347,1.142e-05,0.0,0 STARLINK-6041,1 56478U 23064AG  24232.39202275  .00001142  00000-0  10347-3 0  9994,2 56478  70.0000 114.8147 0002786 269.8551  90.2289 14.98326055 71128,6950.205,96.107,574.006,570.134,0.0
56478.0,STARLINK-6041,PAYLOAD,2024-08-20 03:01:59,14.98324847,0.0002738,70.0001,112.9637,273.3541,86.7305,5.4802e-06,-2.8e-07,0.0,0 STARLINK-6041,1 56478U 23064AG  24233.12638721 -.00000028  00000-0  54802-5 0  9994,2 56478  70.0001 112.9637 0002738 273.3541  86.7305 14.98324847 70875,6950.209,96.107,573.977,570.171,0.0
56478.0,STARLINK-6041,PAYLOAD,2024-08-20 20:39:27,14.98333912,0.0002849,69.9996,111.1129,270.2388,89.8444,1.5372e-05,9e-07,0.0,0 STARLINK-6041,1 56478U 23064AG  24233.86074016  .00000090  00000-0  15372-4 0  9992,2 56478  69.9996 111.1129 0002849 270.2388  89.8444 14.98333912 71344,6950.181,96.107,574.026,570.066,0.0
56478.0,STARLINK-6041,PAYLOAD,2024-08-21 01:27:51,14.98335588,0.0002811,69.9997,110.608,270.0326,90.0511,3.695e-05,3.48e-06,0.0,0 STARLINK-6041,1 56478U 23064AG  24234.06101803  .00000348  00000-0  36950-4 0  9991,2 56478  69.9997 110.6080 0002811 270.0326  90.0511 14.98335588 71018,6950.176,96.107,573.994,570.087,0.0
56478.0,STARLINK-6041,PAYLOAD,2024-08-21 20:41:31,14.98304755,0.0002972,69.9991,108.5873,271.7267,88.3551,-0.00012204,-1.548e-05,0.0,0 STARLINK-6041,1 56478U 23064AG  24234.86216956 -.00001548  00000-0 -12204-3 0  9995,2 56478  69.9991 108.5873 0002972 271.7267  88.3551 14.98304755 71496,6950.271,96.109,574.202,570.07,0.0
